{
  "type": "FeatureCollection",
  "generator": "overpass-ide",
  "copyright": "The data included in this document is from www.openstreetmap.org. The data is made available under ODbL.",
  "timestamp": "2021-09-07T15:30:58Z",
  "features": [
    {
      "type": "Feature",
      "properties": {
        "@id": "way/482284812",
        "highway": "raceway",
        "name": "Circuit  C.I.K",
        "oneway": "yes",
        "sport": "karting"
      },
      "geometry": {
        "type": "LineString",
        "coordinates": [
          [
            0.211341,
            47.942673
          ],
          [
            0.2114295,
            47.941859
          ],
          [
            0.2114778,
            47.9417746
          ],
          [
            0.2115327,
            47.9417203
          ],
          [
            0.2117595,
            47.9414961
          ],
          [
            0.2118909,
            47.9414386
          ],
          [
            0.2119848,
            47.9414386
          ],
          [
            0.2121403,
            47.9414565
          ],
          [
            0.2122315,
            47.9415176
          ],
          [
            0.2122637,
            47.9415608
          ],
          [
            0.2122557,
            47.9416488
          ],
          [
            0.2122154,
            47.9417009
          ],
          [
            0.2119392,
            47.9418429
          ],
          [
            0.2118802,
            47.9419111
          ],
          [
            0.2118372,
            47.941983
          ],
          [
            0.2116388,
            47.9429838
          ],
          [
            0.2116602,
            47.9430575
          ],
          [
            0.2117702,
            47.9431096
          ],
          [
            0.2126607,
            47.9431671
          ],
          [
            0.2127787,
            47.9431419
          ],
          [
            0.2128618,
            47.9430844
          ],
          [
            0.2128967,
            47.9430287
          ],
          [
            0.2128994,
            47.9428706
          ],
          [
            0.2128404,
            47.9427574
          ],
          [
            0.2127331,
            47.9426783
          ],
          [
            0.2126231,
            47.9426514
          ],
          [
            0.2124971,
            47.9426855
          ],
          [
            0.2123174,
            47.9428059
          ],
          [
            0.2122181,
            47.9428203
          ],
          [
            0.2120518,
            47.942779
          ],
          [
            0.2120223,
            47.9427197
          ],
          [
            0.212025,
            47.9426855
          ],
          [
            0.2121511,
            47.9423531
          ],
          [
            0.212194,
            47.9423046
          ],
          [
            0.2122718,
            47.9422849
          ],
          [
            0.2124327,
            47.9422741
          ],
          [
            0.2125132,
            47.9422328
          ],
          [
            0.2125641,
            47.9421609
          ],
          [
            0.212607,
            47.9416722
          ],
          [
            0.2126231,
            47.9416272
          ],
          [
            0.2126821,
            47.9415715
          ],
          [
            0.2133312,
            47.9411457
          ],
          [
            0.2134251,
            47.9411295
          ],
          [
            0.2135002,
            47.9411529
          ],
          [
            0.2135565,
            47.9412122
          ],
          [
            0.213578,
            47.9412787
          ],
          [
            0.2135699,
            47.9413451
          ],
          [
            0.2135029,
            47.9414152
          ],
          [
            0.2131059,
            47.9416308
          ],
          [
            0.213055,
            47.9417207
          ],
          [
            0.2130657,
            47.9418069
          ],
          [
            0.2131274,
            47.9418734
          ],
          [
            0.2132052,
            47.9419129
          ],
          [
            0.2132803,
            47.9419632
          ],
          [
            0.2133527,
            47.9420387
          ],
          [
            0.2133581,
            47.9421285
          ],
          [
            0.2132803,
            47.9435444
          ],
          [
            0.2132132,
            47.9435965
          ],
          [
            0.2130845,
            47.9435929
          ],
          [
            0.2125105,
            47.943397
          ],
          [
            0.212371,
            47.9434078
          ],
          [
            0.2122691,
            47.9434563
          ],
          [
            0.2122449,
            47.9435192
          ],
          [
            0.2122288,
            47.9436324
          ],
          [
            0.2121296,
            47.9437133
          ],
          [
            0.2119874,
            47.9437438
          ],
          [
            0.2115046,
            47.9437312
          ],
          [
            0.2114188,
            47.9436917
          ],
          [
            0.211274,
            47.9433827
          ],
          [
            0.2112686,
            47.9432856
          ],
          [
            0.211341,
            47.942673
          ]
        ]
      },
      "id": "way/482284812"
    }
  ]
}