{
  "type": "FeatureCollection",
  "generator": "overpass-ide",
  "copyright": "The data included in this document is from www.openstreetmap.org. The data is made available under ODbL.",
  "timestamp": "2021-08-30T09:05:13Z",
  "features": [
	{
      "type": "Feature",
      "properties": {
        "@id": "way/157790380",
        "highway": "raceway",
        "lanes": "1",
        "maxspeed": "80",
        "name": "Pit Lane",
        "oneway": "yes",
        "smoothness": "excellent",
        "source": "https://commons.wikimedia.org/wiki/File:Aut%C3%B3dromo_de_Algarve.svg",
        "sport": "motor",
        "surface": "asphalt",
        "width": "5"
      },
      "geometry": {
        "type": "LineString",
        "coordinates": [
          [
            -8.6255649,
            37.2269084
          ],
          [
            -8.6258562,
            37.2267763
          ],
          [
            -8.6259761,
            37.2267303
          ],
          [
            -8.6261003,
            37.2266951
          ],
          [
            -8.6262424,
            37.2266673
          ],
          [
            -8.6263907,
            37.2266524
          ],
          [
            -8.6280469,
            37.2266337
          ],
          [
            -8.6281554,
            37.2266369
          ],
          [
            -8.6282604,
            37.22665
          ],
          [
            -8.6283656,
            37.2266777
          ],
          [
            -8.6284814,
            37.2267216
          ],
          [
            -8.6285929,
            37.2267825
          ],
          [
            -8.6286639,
            37.2268432
          ],
          [
            -8.6287355,
            37.226921
          ],
          [
            -8.6287835,
            37.2269981
          ],
          [
            -8.6288219,
            37.2270859
          ],
          [
            -8.6293573,
            37.2285852
          ],
          [
            -8.6310659,
            37.2333292
          ],
          [
            -8.6312562,
            37.2338209
          ],
          [
            -8.6313265,
            37.2339706
          ],
          [
            -8.6314056,
            37.2341371
          ],
          [
            -8.6315116,
            37.2343421
          ],
          [
            -8.6316591,
            37.2346053
          ],
          [
            -8.6318173,
            37.2348608
          ]
        ]
      },
      "id": "way/157790380"
    }
  ]
}