{
  "type": "FeatureCollection",
  "generator": "overpass-ide",
  "copyright": "The data included in this document is from www.openstreetmap.org. The data is made available under ODbL.",
  "timestamp": "2021-08-29T15:08:43Z",
  "features": [
	{
      "type": "Feature",
      "properties": {
        "@id": "way/126807525",
        "highway": "raceway",
        "name": "Support Pit Lane",
        "oneway": "yes",
        "sport": "motor"
      },
      "geometry": {
        "type": "LineString",
        "coordinates": [
          [
            5.9654276,
            50.445697
          ],
          [
            5.9656362,
            50.4455808
          ],
          [
            5.9659581,
            50.4454147
          ],
          [
            5.9662842,
            50.4452563
          ],
          [
            5.9664519,
            50.4451632
          ],
          [
            5.9665986,
            50.4450691
          ],
          [
            5.9667772,
            50.4449917
          ],
          [
            5.9668817,
            50.4449581
          ],
          [
            5.9669853,
            50.4449174
          ],
          [
            5.9670932,
            50.4448707
          ],
          [
            5.9671882,
            50.4448185
          ],
          [
            5.9673618,
            50.4447206
          ],
          [
            5.9675311,
            50.444604
          ],
          [
            5.9677125,
            50.4444687
          ],
          [
            5.9678981,
            50.444324
          ],
          [
            5.9682747,
            50.4440397
          ],
          [
            5.9683533,
            50.4439836
          ],
          [
            5.9696357,
            50.4430173
          ],
          [
            5.9699417,
            50.4427852
          ],
          [
            5.9702132,
            50.4425923
          ],
          [
            5.9703367,
            50.4425095
          ],
          [
            5.9704515,
            50.4424419
          ],
          [
            5.970605,
            50.4423489
          ],
          [
            5.9708197,
            50.4422108
          ],
          [
            5.9709517,
            50.4421281
          ],
          [
            5.971088,
            50.4420379
          ],
          [
            5.9714712,
            50.4417802
          ],
          [
            5.9715914,
            50.441692
          ],
          [
            5.9716633,
            50.4416223
          ],
          [
            5.9717138,
            50.4415662
          ],
          [
            5.9717503,
            50.4415081
          ],
          [
            5.9718265,
            50.4413611
          ],
          [
            5.971864,
            50.4412853
          ],
          [
            5.9718812,
            50.4412271
          ],
          [
            5.9718823,
            50.4411943
          ],
          [
            5.9718801,
            50.4411431
          ],
          [
            5.9718716,
            50.441046
          ],
          [
            5.971878,
            50.4409216
          ],
          [
            5.9718834,
            50.4408744
          ],
          [
            5.9718973,
            50.4408149
          ],
          [
            5.9719177,
            50.4407671
          ],
          [
            5.9719499,
            50.4407063
          ],
          [
            5.9720285,
            50.4406076
          ],
          [
            5.9728142,
            50.4398016
          ],
          [
            5.9728936,
            50.4397271
          ],
          [
            5.9729849,
            50.4396567
          ],
          [
            5.9731115,
            50.4395746
          ],
          [
            5.9734722,
            50.4393347
          ],
          [
            5.9736571,
            50.4392082
          ],
          [
            5.9737846,
            50.4391096
          ],
          [
            5.9739652,
            50.4389385
          ],
          [
            5.9741488,
            50.438792
          ]
        ]
      },
      "id": "way/126807525"
    },
	{
      "type": "Feature",
      "properties": {
        "@id": "way/323851541",
        "highway": "raceway",
        "name": "Pit Lane",
        "oneway": "yes",
        "sport": "motor",
        "surface": "asphalt"
      },
      "geometry": {
        "type": "LineString",
        "coordinates": [
          [
            5.9670047,
            50.441538
          ],
          [
            5.967087,
            50.4415032
          ],
          [
            5.9672104,
            50.4414912
          ],
          [
            5.9672741,
            50.4414915
          ],
          [
            5.9673428,
            50.4415045
          ],
          [
            5.9674105,
            50.4415229
          ],
          [
            5.9674383,
            50.4415335
          ],
          [
            5.9674681,
            50.4415479
          ],
          [
            5.9675124,
            50.4415858
          ],
          [
            5.9675446,
            50.4416241
          ],
          [
            5.9675629,
            50.4416672
          ],
          [
            5.9675682,
            50.4416938
          ],
          [
            5.9675715,
            50.4417232
          ],
          [
            5.9675637,
            50.4417694
          ],
          [
            5.9675435,
            50.4418182
          ],
          [
            5.9675184,
            50.4418601
          ],
          [
            5.967466,
            50.4419386
          ],
          [
            5.9673562,
            50.4420862
          ],
          [
            5.9671926,
            50.4422872
          ],
          [
            5.9669328,
            50.4425729
          ],
          [
            5.9668931,
            50.4426098
          ],
          [
            5.9668416,
            50.4426515
          ],
          [
            5.9664255,
            50.4429441
          ],
          [
            5.966379,
            50.442981
          ],
          [
            5.9662974,
            50.4430705
          ],
          [
            5.9662115,
            50.4431717
          ],
          [
            5.9641305,
            50.4455165
          ],
          [
            5.9640148,
            50.4456521
          ],
          [
            5.9639675,
            50.4457184
          ],
          [
            5.9639493,
            50.4457683
          ],
          [
            5.9639504,
            50.4458086
          ],
          [
            5.9639633,
            50.4458455
          ],
          [
            5.9639965,
            50.4458824
          ],
          [
            5.9640477,
            50.445922
          ],
          [
            5.9641175,
            50.4459471
          ],
          [
            5.9641858,
            50.4459597
          ],
          [
            5.9642678,
            50.4459665
          ],
          [
            5.9643407,
            50.4459674
          ],
          [
            5.9644333,
            50.4459558
          ],
          [
            5.9645653,
            50.4459191
          ],
          [
            5.9647596,
            50.4458631
          ],
          [
            5.9649494,
            50.4458138
          ],
          [
            5.9651634,
            50.4457619
          ],
          [
            5.9654276,
            50.445697
          ]
        ]
      },
      "id": "way/323851541"
    }
  ]
}